QIANFAN-25              
1 61558U 24185G   25308.57337495  .00000567  00000+0  33823-3 0  9995
2 61558  88.9787  82.5013 0010842  69.3422 290.8921 14.05852467 64142
QIANFAN-26              
1 61559U 24185H   25308.62100019  .00000326  00000+0  31288-3 0  9998
2 61559  88.9785  83.8580 0007378 120.3684 239.8213 13.77779063 63427
QIANFAN-27              
1 61560U 24185J   25308.61018096  .00000611  00000+0  24411-3 0  9999
2 61560  88.9782  81.4070 0009627  63.1383 297.0794 14.27255246 64725
QIANFAN-28              
1 61561U 24185K   25308.54038849  .00001134  00000+0  45240-3 0  9994
2 61561  88.9800  81.4152 0008834  63.9555 296.2548 14.27908697 64729
QIANFAN-29              
1 61562U 24185L   25308.59648912  .00000190  00000+0  27483-3 0  9998
2 61562  88.9761  85.2455 0010992 153.7818 206.3892 13.50990778 62641
QIANFAN-30              
1 61563U 24185M   25308.54248781  .00000196  00000+0  28908-3 0  9993
2 61563  88.9781  84.7618 0008781 138.6805 221.5011 13.49967259 62918
QIANFAN-31              
1 61564U 24185N   25308.66141753  .00000237  00000+0  31207-3 0  9990
2 61564  88.9766  84.6119 0008509 134.1462 226.0394 13.57942862 62999
QIANFAN-32              
1 61565U 24185P   25308.60610022  .00000121  00000+0  16916-3 0  9997
2 61565  88.9824  84.8778 0009967 164.1630 195.9834 13.50717732 62898
